ONEWEB-0120             
1 47266U 20100J   24199.82922315 -.00000352  00000+0 -10130-2 0  9993
2 47266  87.8958 129.9449 0001911  82.0059 278.1287 13.12442555172991
ONEWEB-0121             
1 47267U 20100K   24199.81773832 -.00000029  00000+0 -11565-3 0  9996
2 47267  87.8952 129.9367 0002036  73.9994 286.1359 13.12442097172902
ONEWEB-0123             
1 47269U 20100M   24199.88424609  .00000352  00000+0  94333-3 0  9991
2 47269  87.8957 129.9431 0001981  80.1741 279.9611 13.12442790172966
ONEWEB-0124             
1 47270U 20100N   24199.87289366  .00000435  00000+0  11732-2 0  9994
2 47270  87.8957 129.9418 0002191  72.4717 287.6651 13.12443939172847
ONEWEB-0125             
1 47271U 20100P   24199.85018052 -.00000104  00000+0 -32345-3 0  9994
2 47271  87.8957 129.9061 0002312  83.6056 276.5336 13.12445671172906
ONEWEB-0126             
1 47272U 20100Q   24199.87532783  .00000439  00000+0  11861-2 0  9997
2 47272  87.8954 129.9059 0001869  78.7884 281.3455 13.12442829172976
ONEWEB-0127             
1 47273U 20100R   24199.83719840 -.00000343  00000+0 -98978-3 0  9996
2 47273  87.8958 129.9428 0001924  79.1032 281.0313 13.12443091172997
