<?xml version="1.0" encoding="UTF-8"?>
<ndm xmlns:xsi="http://www.w3.org/2001/XMLSchema-instance" xsi:noNamespaceSchemaLocation="https://sanaregistry.org/r/ndmxml_unqualified/ndmxml-2.0.0-master-2.0.xsd">
<omm id="CCSDS_OMM_VERS" version="2.0">
<header><CREATION_DATE/><ORIGINATOR/></header><body><segment><metadata><OBJECT_NAME>ONEWEB-0120</OBJECT_NAME><OBJECT_ID>2020-100J</OBJECT_ID><CENTER_NAME>EARTH</CENTER_NAME><REF_FRAME>TEME</REF_FRAME><TIME_SYSTEM>UTC</TIME_SYSTEM><MEAN_ELEMENT_THEORY>SGP4</MEAN_ELEMENT_THEORY></metadata><data><meanElements><EPOCH>2024-07-17T19:54:04.880160</EPOCH><MEAN_MOTION>13.12442555</MEAN_MOTION><ECCENTRICITY>.0001911</ECCENTRICITY><INCLINATION>87.8958</INCLINATION><RA_OF_ASC_NODE>129.9449</RA_OF_ASC_NODE><ARG_OF_PERICENTER>82.0059</ARG_OF_PERICENTER><MEAN_ANOMALY>278.1287</MEAN_ANOMALY></meanElements><tleParameters><EPHEMERIS_TYPE>0</EPHEMERIS_TYPE><CLASSIFICATION_TYPE>U</CLASSIFICATION_TYPE><NORAD_CAT_ID>47266</NORAD_CAT_ID><ELEMENT_SET_NO>999</ELEMENT_SET_NO><REV_AT_EPOCH>17299</REV_AT_EPOCH><BSTAR>-.1013E-2</BSTAR><MEAN_MOTION_DOT>-.352E-5</MEAN_MOTION_DOT><MEAN_MOTION_DDOT>0</MEAN_MOTION_DDOT></tleParameters></data></segment></body></omm>
<omm id="CCSDS_OMM_VERS" version="2.0">
<header><CREATION_DATE/><ORIGINATOR/></header><body><segment><metadata><OBJECT_NAME>ONEWEB-0121</OBJECT_NAME><OBJECT_ID>2020-100K</OBJECT_ID><CENTER_NAME>EARTH</CENTER_NAME><REF_FRAME>TEME</REF_FRAME><TIME_SYSTEM>UTC</TIME_SYSTEM><MEAN_ELEMENT_THEORY>SGP4</MEAN_ELEMENT_THEORY></metadata><data><meanElements><EPOCH>2024-07-17T19:37:32.590848</EPOCH><MEAN_MOTION>13.12442097</MEAN_MOTION><ECCENTRICITY>.0002036</ECCENTRICITY><INCLINATION>87.8952</INCLINATION><RA_OF_ASC_NODE>129.9367</RA_OF_ASC_NODE><ARG_OF_PERICENTER>73.9994</ARG_OF_PERICENTER><MEAN_ANOMALY>286.1359</MEAN_ANOMALY></meanElements><tleParameters><EPHEMERIS_TYPE>0</EPHEMERIS_TYPE><CLASSIFICATION_TYPE>U</CLASSIFICATION_TYPE><NORAD_CAT_ID>47267</NORAD_CAT_ID><ELEMENT_SET_NO>999</ELEMENT_SET_NO><REV_AT_EPOCH>17290</REV_AT_EPOCH><BSTAR>-.11565E-3</BSTAR><MEAN_MOTION_DOT>-.29E-6</MEAN_MOTION_DOT><MEAN_MOTION_DDOT>0</MEAN_MOTION_DDOT></tleParameters></data></segment></body></omm>
<omm id="CCSDS_OMM_VERS" version="2.0">
<header><CREATION_DATE/><ORIGINATOR/></header><body><segment><metadata><OBJECT_NAME>ONEWEB-0123</OBJECT_NAME><OBJECT_ID>2020-100M</OBJECT_ID><CENTER_NAME>EARTH</CENTER_NAME><REF_FRAME>TEME</REF_FRAME><TIME_SYSTEM>UTC</TIME_SYSTEM><MEAN_ELEMENT_THEORY>SGP4</MEAN_ELEMENT_THEORY></metadata><data><meanElements><EPOCH>2024-07-17T21:13:18.862176</EPOCH><MEAN_MOTION>13.12442790</MEAN_MOTION><ECCENTRICITY>.0001981</ECCENTRICITY><INCLINATION>87.8957</INCLINATION><RA_OF_ASC_NODE>129.9431</RA_OF_ASC_NODE><ARG_OF_PERICENTER>80.1741</ARG_OF_PERICENTER><MEAN_ANOMALY>279.9611</MEAN_ANOMALY></meanElements><tleParameters><EPHEMERIS_TYPE>0</EPHEMERIS_TYPE><CLASSIFICATION_TYPE>U</CLASSIFICATION_TYPE><NORAD_CAT_ID>47269</NORAD_CAT_ID><ELEMENT_SET_NO>999</ELEMENT_SET_NO><REV_AT_EPOCH>17296</REV_AT_EPOCH><BSTAR>.94333E-3</BSTAR><MEAN_MOTION_DOT>.352E-5</MEAN_MOTION_DOT><MEAN_MOTION_DDOT>0</MEAN_MOTION_DDOT></tleParameters></data></segment></body></omm>
<omm id="CCSDS_OMM_VERS" version="2.0">
<header><CREATION_DATE/><ORIGINATOR/></header><body><segment><metadata><OBJECT_NAME>ONEWEB-0124</OBJECT_NAME><OBJECT_ID>2020-100N</OBJECT_ID><CENTER_NAME>EARTH</CENTER_NAME><REF_FRAME>TEME</REF_FRAME><TIME_SYSTEM>UTC</TIME_SYSTEM><MEAN_ELEMENT_THEORY>SGP4</MEAN_ELEMENT_THEORY></metadata><data><meanElements><EPOCH>2024-07-17T20:56:58.012224</EPOCH><MEAN_MOTION>13.12443939</MEAN_MOTION><ECCENTRICITY>.0002191</ECCENTRICITY><INCLINATION>87.8957</INCLINATION><RA_OF_ASC_NODE>129.9418</RA_OF_ASC_NODE><ARG_OF_PERICENTER>72.4717</ARG_OF_PERICENTER><MEAN_ANOMALY>287.6651</MEAN_ANOMALY></meanElements><tleParameters><EPHEMERIS_TYPE>0</EPHEMERIS_TYPE><CLASSIFICATION_TYPE>U</CLASSIFICATION_TYPE><NORAD_CAT_ID>47270</NORAD_CAT_ID><ELEMENT_SET_NO>999</ELEMENT_SET_NO><REV_AT_EPOCH>17284</REV_AT_EPOCH><BSTAR>.11732E-2</BSTAR><MEAN_MOTION_DOT>.435E-5</MEAN_MOTION_DOT><MEAN_MOTION_DDOT>0</MEAN_MOTION_DDOT></tleParameters></data></segment></body></omm>
<omm id="CCSDS_OMM_VERS" version="2.0">
<header><CREATION_DATE/><ORIGINATOR/></header><body><segment><metadata><OBJECT_NAME>ONEWEB-0125</OBJECT_NAME><OBJECT_ID>2020-100P</OBJECT_ID><CENTER_NAME>EARTH</CENTER_NAME><REF_FRAME>TEME</REF_FRAME><TIME_SYSTEM>UTC</TIME_SYSTEM><MEAN_ELEMENT_THEORY>SGP4</MEAN_ELEMENT_THEORY></metadata><data><meanElements><EPOCH>2024-07-17T20:24:15.596928</EPOCH><MEAN_MOTION>13.12445671</MEAN_MOTION><ECCENTRICITY>.0002312</ECCENTRICITY><INCLINATION>87.8957</INCLINATION><RA_OF_ASC_NODE>129.9061</RA_OF_ASC_NODE><ARG_OF_PERICENTER>83.6056</ARG_OF_PERICENTER><MEAN_ANOMALY>276.5336</MEAN_ANOMALY></meanElements><tleParameters><EPHEMERIS_TYPE>0</EPHEMERIS_TYPE><CLASSIFICATION_TYPE>U</CLASSIFICATION_TYPE><NORAD_CAT_ID>47271</NORAD_CAT_ID><ELEMENT_SET_NO>999</ELEMENT_SET_NO><REV_AT_EPOCH>17290</REV_AT_EPOCH><BSTAR>-.32345E-3</BSTAR><MEAN_MOTION_DOT>-.104E-5</MEAN_MOTION_DOT><MEAN_MOTION_DDOT>0</MEAN_MOTION_DDOT></tleParameters></data></segment></body></omm>
<omm id="CCSDS_OMM_VERS" version="2.0">
<header><CREATION_DATE/><ORIGINATOR/></header><body><segment><metadata><OBJECT_NAME>ONEWEB-0126</OBJECT_NAME><OBJECT_ID>2020-100Q</OBJECT_ID><CENTER_NAME>EARTH</CENTER_NAME><REF_FRAME>TEME</REF_FRAME><TIME_SYSTEM>UTC</TIME_SYSTEM><MEAN_ELEMENT_THEORY>SGP4</MEAN_ELEMENT_THEORY></metadata><data><meanElements><EPOCH>2024-07-17T21:00:28.324512</EPOCH><MEAN_MOTION>13.12442829</MEAN_MOTION><ECCENTRICITY>.0001869</ECCENTRICITY><INCLINATION>87.8954</INCLINATION><RA_OF_ASC_NODE>129.9059</RA_OF_ASC_NODE><ARG_OF_PERICENTER>78.7884</ARG_OF_PERICENTER><MEAN_ANOMALY>281.3455</MEAN_ANOMALY></meanElements><tleParameters><EPHEMERIS_TYPE>0</EPHEMERIS_TYPE><CLASSIFICATION_TYPE>U</CLASSIFICATION_TYPE><NORAD_CAT_ID>47272</NORAD_CAT_ID><ELEMENT_SET_NO>999</ELEMENT_SET_NO><REV_AT_EPOCH>17297</REV_AT_EPOCH><BSTAR>.11861E-2</BSTAR><MEAN_MOTION_DOT>.439E-5</MEAN_MOTION_DOT><MEAN_MOTION_DDOT>0</MEAN_MOTION_DDOT></tleParameters></data></segment></body></omm>
<omm id="CCSDS_OMM_VERS" version="2.0">
<header><CREATION_DATE/><ORIGINATOR/></header><body><segment><metadata><OBJECT_NAME>ONEWEB-0127</OBJECT_NAME><OBJECT_ID>2020-100R</OBJECT_ID><CENTER_NAME>EARTH</CENTER_NAME><REF_FRAME>TEME</REF_FRAME><TIME_SYSTEM>UTC</TIME_SYSTEM><MEAN_ELEMENT_THEORY>SGP4</MEAN_ELEMENT_THEORY></metadata><data><meanElements><EPOCH>2024-07-17T20:05:33.941760</EPOCH><MEAN_MOTION>13.12443091</MEAN_MOTION><ECCENTRICITY>.0001924</ECCENTRICITY><INCLINATION>87.8958</INCLINATION><RA_OF_ASC_NODE>129.9428</RA_OF_ASC_NODE><ARG_OF_PERICENTER>79.1032</ARG_OF_PERICENTER><MEAN_ANOMALY>281.0313</MEAN_ANOMALY></meanElements><tleParameters><EPHEMERIS_TYPE>0</EPHEMERIS_TYPE><CLASSIFICATION_TYPE>U</CLASSIFICATION_TYPE><NORAD_CAT_ID>47273</NORAD_CAT_ID><ELEMENT_SET_NO>999</ELEMENT_SET_NO><REV_AT_EPOCH>17299</REV_AT_EPOCH><BSTAR>-.98978E-3</BSTAR><MEAN_MOTION_DOT>-.343E-5</MEAN_MOTION_DOT><MEAN_MOTION_DDOT>0</MEAN_MOTION_DDOT></tleParameters></data></segment></body></omm>

</ndm>
